[{"OBJECT_NAME":"COSMOS 2573","OBJECT_ID":"2023-201A","EPOCH":"2026-03-10T00:09:51.763968","MEAN_MOTION":15.24110739,"ECCENTRICITY":0.00025748,"INCLINATION":97.6178,"RA_OF_ASC_NODE":16.7239,"ARG_OF_PERICENTER":58.72,"MEAN_ANOMALY":301.4289,"EPHEMERIS_TYPE":0,"CLASSIFICATION_TYPE":"U","NORAD_CAT_ID":58614,"ELEMENT_SET_NO":999,"REV_AT_EPOCH":12337,"BSTAR":0.00023292354,"MEAN_MOTION_DOT":5.586e-5,"MEAN_MOTION_DDOT":0},{"OBJECT_NAME":"SATMAR","OBJECT_ID":"2025-135Z","EPOCH":"2026-03-09T20:30:41.171616","MEAN_MOTION":15.2332395,"ECCENTRICITY":8.237e-5,"INCLINATION":97.4487,"RA_OF_ASC_NODE":185.1397,"ARG_OF_PERICENTER":164.2564,"MEAN_ANOMALY":195.8698,"EPHEMERIS_TYPE":0,"CLASSIFICATION_TYPE":"U","NORAD_CAT_ID":64551,"ELEMENT_SET_NO":999,"REV_AT_EPOCH":3979,"BSTAR":0.00047484624,"MEAN_MOTION_DOT":0.0001121,"MEAN_MOTION_DDOT":0}]
